{"17":{"type":"Kabupaten","city_name":"Badung","postal_code":"80351","districts":{"258":"Abiansemal","259":"Kuta","260":"Kuta Selatan","261":"Kuta Utara","262":"Mengwi","263":"Petang"}},"32":{"type":"Kabupaten","city_name":"Bangli","postal_code":"80619","districts":{"472":"Bangli","473":"Kintamani","474":"Susut","475":"Tembuku"}},"94":{"type":"Kabupaten","city_name":"Buleleng","postal_code":"81111","districts":{"1279":"Banjar","1280":"Buleleng","1281":"Busungbiu","1282":"Gerokgak","1283":"Kubutambahan","1284":"Sawan","1285":"Seririt","1286":"Sukasada","1287":"Tejakula"}},"114":{"type":"Kota","city_name":"Denpasar","postal_code":"80227","districts":{"1573":"Denpasar Barat","1574":"Denpasar Selatan","1575":"Denpasar Timur","1576":"Denpasar Utara"}},"128":{"type":"Kabupaten","city_name":"Gianyar","postal_code":"80519","districts":{"1764":"Belah Batuh (Blahbatuh)","1765":"Gianyar","1766":"Payangan","1767":"Sukawati","1768":"Tampak Siring","1769":"Tegallalang","1770":"Ubud"}},"161":{"type":"Kabupaten","city_name":"Jembrana","postal_code":"82251","districts":{"2232":"Jembrana","2233":"Melaya","2234":"Mendoyo","2235":"Negara","2236":"Pekutatan"}},"170":{"type":"Kabupaten","city_name":"Karangasem","postal_code":"80819","districts":{"2370":"Abang","2371":"Bebandem","2372":"Karang Asem","2373":"Kubu","2374":"Manggis","2375":"Rendang","2376":"Selat","2377":"Sidemen"}},"197":{"type":"Kabupaten","city_name":"Klungkung","postal_code":"80719","districts":{"2748":"Banjarangkan","2749":"Dawan","2750":"Klungkung","2751":"Nusapenida"}},"447":{"type":"Kabupaten","city_name":"Tabanan","postal_code":"82119","districts":{"6179":"Baturiti","6180":"Kediri","6181":"Kerambitan","6182":"Marga","6183":"Penebel","6184":"Pupuan","6185":"Selemadeg","6186":"Selemadeg \/ Salamadeg Timur","6187":"Selemadeg \/ Salemadeg Barat","6188":"Tabanan"}}}