{"18":{"type":"Kabupaten","city_name":"Balangan","postal_code":"71611","districts":{"264":"Awayan","265":"Batu Mandi","266":"Halong","267":"Juai","268":"Lampihong","269":"Paringin","270":"Paringin Selatan","271":"Tebing Tinggi"}},"33":{"type":"Kabupaten","city_name":"Banjar","postal_code":"70619","districts":{"476":"Aluh-Aluh","477":"Aranio","478":"Astambul","479":"Beruntung Baru","480":"Gambut","481":"Karang Intan","482":"Kertak Hanyar","483":"Martapura Barat","484":"Martapura Kota","485":"Martapura Timur","486":"Mataraman","487":"Pengaron","488":"Peramasan","489":"Sambung Makmur","490":"Sei\/Sungai Pinang","491":"Sei\/Sungai Tabuk","492":"Simpang Empat","493":"Tatah Makmur","494":"Telaga Bauntung"}},"35":{"type":"Kota","city_name":"Banjarbaru","postal_code":"70712","districts":{"499":"Banjar Baru Selatan","500":"Banjar Baru Utara","501":"Cempaka","502":"Landasan Ulin","503":"Liang Anggang"}},"36":{"type":"Kota","city_name":"Banjarmasin","postal_code":"70117","districts":{"504":"Banjarmasin Barat","505":"Banjarmasin Selatan","506":"Banjarmasin Tengah","507":"Banjarmasin Timur","508":"Banjarmasin Utara"}},"43":{"type":"Kabupaten","city_name":"Barito Kuala","postal_code":"70511","districts":{"624":"Alalak","625":"Anjir Muara","626":"Anjir Pasar","627":"Bakumpai","628":"Barambai","629":"Belawang","630":"Cerbon","631":"Jejangkit","632":"Kuripan","633":"Mandastana","634":"Marabahan","635":"Mekar Sari","636":"Rantau Badauh","637":"Tabukan","638":"Tabunganen","639":"Tamban","640":"Wanaraya"}},"143":{"type":"Kabupaten","city_name":"Hulu Sungai Selatan","postal_code":"71212","districts":{"1974":"Angkinang","1975":"Daha Barat","1976":"Daha Selatan","1977":"Daha Utara","1978":"Kalumpang (Kelumpang)","1979":"Kandangan","1980":"Loksado","1981":"Padang Batung","1982":"Simpur","1983":"Sungai Raya","1984":"Telaga Langsat"}},"144":{"type":"Kabupaten","city_name":"Hulu Sungai Tengah","postal_code":"71313","districts":{"1985":"Barabai","1986":"Batang Alai Selatan","1987":"Batang Alai Timur","1988":"Batang Alai Utara","1989":"Batu Benawa","1990":"Hantakan","1991":"Haruyan","1992":"Labuan Amas Selatan","1993":"Labuan Amas Utara","1994":"Limpasu","1995":"Pandawan"}},"145":{"type":"Kabupaten","city_name":"Hulu Sungai Utara","postal_code":"71419","districts":{"1996":"Amuntai Selatan","1997":"Amuntai Tengah","1998":"Amuntai Utara","1999":"Babirik","2000":"Banjang","2001":"Danau Panggang","2002":"Haur Gading","2003":"Paminggir","2004":"Sungai Pandan","2005":"Sungai Tabukan"}},"203":{"type":"Kabupaten","city_name":"Kotabaru","postal_code":"72119","districts":{"2849":"Hampang","2850":"Kelumpang Barat","2851":"Kelumpang Hilir","2852":"Kelumpang Hulu","2853":"Kelumpang Selatan","2854":"Kelumpang Tengah","2855":"Kelumpang Utara","2856":"Pamukan Barat","2857":"Pamukan Selatan","2858":"Pamukan Utara","2859":"Pulau Laut Barat","2860":"Pulau Laut Kepulauan","2861":"Pulau Laut Selatan","2862":"Pulau Laut Tanjung Selayar","2863":"Pulau Laut Tengah","2864":"Pulau Laut Timur","2865":"Pulau Laut Utara","2866":"Pulau Sebuku","2867":"Pulau Sembilan","2868":"Sampanahan","2869":"Sungai Durian"}},"446":{"type":"Kabupaten","city_name":"Tabalong","postal_code":"71513","districts":{"6167":"Banua Lawas","6168":"Bintang Ara","6169":"Haruai","6170":"Jaro","6171":"Kelua (Klua)","6172":"Muara Harus","6173":"Muara Uya","6174":"Murung Pudak","6175":"Pugaan","6176":"Tanjung","6177":"Tanta","6178":"Upau"}},"452":{"type":"Kabupaten","city_name":"Tanah Bumbu","postal_code":"72211","districts":{"6233":"Angsana","6234":"Batulicin","6235":"Karang Bintang","6236":"Kuranji","6237":"Kusan Hilir","6238":"Kusan Hulu","6239":"Mantewe","6240":"Satui","6241":"Simpang Empat","6242":"Sungai Loban"}},"454":{"type":"Kabupaten","city_name":"Tanah Laut","postal_code":"70811","districts":{"6257":"Bajuin","6258":"Bati-Bati","6259":"Batu Ampar","6260":"Bumi Makmur","6261":"Jorong","6262":"Kintap","6263":"Kurau","6264":"Panyipatan","6265":"Pelaihari","6266":"Takisung","6267":"Tambang Ulang"}},"466":{"type":"Kabupaten","city_name":"Tapin","postal_code":"71119","districts":{"6420":"Bakarangan","6421":"Binuang","6422":"Bungur","6423":"Candi Laras Selatan","6424":"Candi Laras Utara","6425":"Hatungun","6426":"Lokpaikat","6427":"Piani","6428":"Salam Babaris","6429":"Tapin Selatan","6430":"Tapin Tengah","6431":"Tapin Utara"}}}