{"44":{"type":"Kabupaten","city_name":"Barito Selatan","postal_code":"73711","districts":{"641":"Dusun Hilir","642":"Dusun Selatan","643":"Dusun Utara","644":"Gunung Bintang Awai","645":"Jenamas","646":"Karau Kuala"}},"45":{"type":"Kabupaten","city_name":"Barito Timur","postal_code":"73671","districts":{"647":"Awang","648":"Benua Lima","649":"Dusun Tengah","650":"Dusun Timur","651":"Karusen Janang","652":"Paju Epat","653":"Paku","654":"Patangkep Tutui","655":"Pematang Karau","656":"Raren Batuah"}},"46":{"type":"Kabupaten","city_name":"Barito Utara","postal_code":"73881","districts":{"657":"Gunung Purei","658":"Gunung Timang","659":"Lahei","660":"Lahei Barat","661":"Montallat (Montalat)","662":"Teweh Baru","663":"Teweh Selatan","664":"Teweh Tengah","665":"Teweh Timur"}},"136":{"type":"Kabupaten","city_name":"Gunung Mas","postal_code":"74511","districts":{"1883":"Damang Batu","1884":"Kahayan Hulu Utara","1885":"Kurun","1886":"Manuhing","1887":"Manuhing Raya","1888":"Mihing Raya","1889":"Miri Manasa","1890":"Rungan","1891":"Rungan Barat","1892":"Rungan Hulu","1893":"Sepang (Sepang Simin)","1894":"Tewah"}},"167":{"type":"Kabupaten","city_name":"Kapuas","postal_code":"73583","districts":{"2313":"Basarang","2314":"Bataguh","2315":"Dadahup","2316":"Kapuas Barat","2317":"Kapuas Hilir","2318":"Kapuas Hulu","2319":"Kapuas Kuala","2320":"Kapuas Murung","2321":"Kapuas Tengah","2322":"Kapuas Timur","2323":"Mandau Talawang","2324":"Mantangai","2325":"Pasak Talawang","2326":"Pulau Petak","2327":"Selat","2328":"Tamban Catur","2329":"Timpah"}},"174":{"type":"Kabupaten","city_name":"Katingan","postal_code":"74411","districts":{"2437":"Bukit Raya","2438":"Kamipang","2439":"Katingan Hilir","2440":"Katingan Hulu","2441":"Katingan Kuala","2442":"Katingan Tengah","2443":"Marikit","2444":"Mendawai","2445":"Petak Malai","2446":"Pulau Malan","2447":"Sanaman Mantikei (Senamang Mantikei)","2448":"Tasik Payawan","2449":"Tewang Sanggalang Garing (Sangalang)"}},"205":{"type":"Kabupaten","city_name":"Kotawaringin Barat","postal_code":"74119","districts":{"2874":"Arut Selatan","2875":"Arut Utara","2876":"Kotawaringin Lama","2877":"Kumai","2878":"Pangkalan Banteng","2879":"Pangkalan Lada"}},"206":{"type":"Kabupaten","city_name":"Kotawaringin Timur","postal_code":"74364","districts":{"2880":"Antang Kalang","2881":"Baamang","2882":"Bukit Santuei","2883":"Cempaga","2884":"Cempaga Hulu","2885":"Kota Besi","2886":"Mentawa Baru (Ketapang)","2887":"Mentaya Hilir Selatan","2888":"Mentaya Hilir Utara","2889":"Mentaya Hulu","2890":"Parenggean","2891":"Pulau Hanaut","2892":"Seranau","2893":"Telaga Antang","2894":"Telawang","2895":"Teluk Sampit","2896":"Tualan Hulu"}},"221":{"type":"Kabupaten","city_name":"Lamandau","postal_code":"74611","districts":{"3105":"Batangkawa","3106":"Belantikan Raya","3107":"Bulik","3108":"Bulik Timur","3109":"Delang","3110":"Lamandau","3111":"Menthobi Raya","3112":"Sematu Jaya"}},"296":{"type":"Kabupaten","city_name":"Murung Raya","postal_code":"73911","districts":{"4190":"Barito Tuhup Raya","4191":"Laung Tuhup","4192":"Murung","4193":"Permata Intan","4194":"Seribu Riam","4195":"Sumber Barito","4196":"Sungai Babuat","4197":"Tanah Siang","4198":"Tanah Siang Selatan","4199":"Uut Murung"}},"326":{"type":"Kota","city_name":"Palangka Raya","postal_code":"73112","districts":{"4604":"Bukit Batu","4605":"Jekan Raya","4606":"Pahandut","4607":"Rakumpit","4608":"Sebangau"}},"371":{"type":"Kabupaten","city_name":"Pulang Pisau","postal_code":"74811","districts":{"5170":"Banama Tingang","5171":"Jabiren Raya","5172":"Kahayan Hilir","5173":"Kahayan Kuala","5174":"Kahayan Tengah","5175":"Maliku","5176":"Pandih Batu","5177":"Sebangau Kuala"}},"405":{"type":"Kabupaten","city_name":"Seruyan","postal_code":"74211","districts":{"5592":"Batu Ampar","5593":"Danau Seluluk","5594":"Danau Sembuluh","5595":"Hanau","5596":"Seruyan Hilir","5597":"Seruyan Hilir Timur","5598":"Seruyan Hulu","5599":"Seruyan Raya","5600":"Seruyan Tengah","5601":"Suling Tambun"}},"432":{"type":"Kabupaten","city_name":"Sukamara","postal_code":"74712","districts":{"5972":"Balai Riam","5973":"Jelai","5974":"Pantai Lunci","5975":"Permata Kecubung","5976":"Sukamara"}}}