{"19":{"type":"Kota","city_name":"Balikpapan","postal_code":"76111","districts":{"272":"Balikpapan Barat","273":"Balikpapan Kota","274":"Balikpapan Selatan","275":"Balikpapan Tengah","276":"Balikpapan Timur","277":"Balikpapan Utara"}},"66":{"type":"Kabupaten","city_name":"Berau","postal_code":"77311","districts":{"879":"Batu Putih","880":"Biatan","881":"Biduk-Biduk","882":"Derawan (Pulau Derawan)","883":"Gunung Tabur","884":"Kelay","885":"Maratua","886":"Sambaliung","887":"Segah","888":"Tabalar","889":"Talisayan","890":"Tanjung Redeb","891":"Teluk Bayur"}},"89":{"type":"Kota","city_name":"Bontang","postal_code":"75313","districts":{"1217":"Bontang Barat","1218":"Bontang Selatan","1219":"Bontang Utara"}},"214":{"type":"Kabupaten","city_name":"Kutai Barat","postal_code":"75711","districts":{"3004":"Barong Tongkok","3005":"Bentian Besar","3006":"Bongan","3007":"Damai","3008":"Jempang","3009":"Laham","3010":"Linggang Bigung","3011":"Long Apari","3012":"Long Bagun","3013":"Long Hubung","3014":"Long Iram","3015":"Long Pahangai","3016":"Manor Bulatin (Mook Manaar Bulatn)","3017":"Melak","3018":"Muara Lawa","3019":"Muara Pahu","3020":"Nyuatan","3021":"Penyinggahan","3022":"Sekolaq Darat","3023":"Siluq Ngurai","3024":"Tering"}},"215":{"type":"Kabupaten","city_name":"Kutai Kartanegara","postal_code":"75511","districts":{"3025":"Anggana","3026":"Kembang Janggut","3027":"Kenohan","3028":"Kota Bangun","3029":"Loa Janan","3030":"Loa Kulu","3031":"Marang Kayu","3032":"Muara Badak","3033":"Muara Jawa","3034":"Muara Kaman","3035":"Muara Muntai","3036":"Muara Wis","3037":"Samboja (Semboja)","3038":"Sanga-Sanga","3039":"Sebulu","3040":"Tabang","3041":"Tenggarong","3042":"Tenggarong Seberang"}},"216":{"type":"Kabupaten","city_name":"Kutai Timur","postal_code":"75611","districts":{"3043":"Batu Ampar","3044":"Bengalon","3045":"Busang","3046":"Kaliorang","3047":"Karangan","3048":"Kaubun","3049":"Kongbeng","3050":"Long Mesangat (Mesengat)","3051":"Muara Ancalong","3052":"Muara Bengkal","3053":"Muara Wahau","3054":"Rantau Pulung","3055":"Sandaran","3056":"Sangatta Selatan","3057":"Sangatta Utara","3058":"Sangkulirang","3059":"Telen","3060":"Teluk Pandan"}},"341":{"type":"Kabupaten","city_name":"Paser","postal_code":"76211","districts":{"4783":"Batu Engau","4784":"Batu Sopang","4785":"Kuaro","4786":"Long Ikis","4787":"Long Kali","4788":"Muara Komam","4789":"Muara Samu","4790":"Pasir Belengkong","4791":"Tanah Grogot","4792":"Tanjung Harapan"}},"354":{"type":"Kabupaten","city_name":"Penajam Paser Utara","postal_code":"76311","districts":{"4960":"Babulu","4961":"Penajam","4962":"Sepaku","4963":"Waru"}},"387":{"type":"Kota","city_name":"Samarinda","postal_code":"75133","districts":{"5356":"Loa Janan Ilir","5357":"Palaran","5358":"Samarinda Ilir","5359":"Samarinda Kota","5360":"Samarinda Seberang","5361":"Samarinda Ulu","5362":"Samarinda Utara","5363":"Sambutan","5364":"Sungai Kunjang","5365":"Sungai Pinang"}}}