{"14":{"type":"Kota","city_name":"Ambon","postal_code":"97222","districts":{"209":"Baguala","210":"Leitimur Selatan","211":"Nusaniwe (Nusanive)","212":"Sirimau","213":"Teluk Ambon"}},"99":{"type":"Kabupaten","city_name":"Buru","postal_code":"97371","districts":{"1336":"Airbuaya","1337":"Batabual","1338":"Fena Leisela","1339":"Lilialy","1340":"Lolong Guba","1341":"Namlea","1342":"Teluk Kaiely","1343":"Waeapo","1344":"Waelata","1345":"Waplau"}},"100":{"type":"Kabupaten","city_name":"Buru Selatan","postal_code":"97351","districts":{"1346":"Ambalau","1347":"Fena Fafan","1348":"Kepala Madan","1349":"Leksula","1350":"Namrole","1351":"Waesama"}},"185":{"type":"Kabupaten","city_name":"Kepulauan Aru","postal_code":"97681","districts":{"2578":"Aru Selatan","2579":"Aru Selatan Timur","2580":"Aru Selatan Utara","2581":"Aru Tengah","2582":"Aru Tengah Selatan","2583":"Aru Tengah Timur","2584":"Aru Utara","2585":"Aru Utara Timur Batuley","2586":"Pulau-Pulau Aru","2587":"Sir-Sir"}},"258":{"type":"Kabupaten","city_name":"Maluku Barat Daya","postal_code":"97451","districts":{"3654":"Damer","3655":"Dawelor Dawera","3656":"Kepulauan Romang","3657":"Kisar Utara","3658":"Mdona Hyera\/Hiera","3659":"Moa Lakor","3660":"Pulau Lakor","3661":"Pulau Letti (Leti Moa Lakor)","3662":"Pulau Masela","3663":"Pulau Pulau Babar","3664":"Pulau Pulau Terselatan","3665":"Pulau Wetang","3666":"Pulau-Pulau Babar Timur","3667":"Wetar","3668":"Wetar Barat","3669":"Wetar Timur","3670":"Wetar Utara"}},"259":{"type":"Kabupaten","city_name":"Maluku Tengah","postal_code":"97513","districts":{"3671":"Amahai","3672":"Banda","3673":"Leihitu","3674":"Leihitu Barat","3675":"Masohi Kota","3676":"Nusalaut","3677":"Pulau Haruku","3678":"Salahutu","3679":"Saparua","3680":"Saparua Timur","3681":"Seram Utara","3682":"Seram Utara Barat","3683":"Seram Utara Timur Kobi","3684":"Seram Utara Timur Seti","3685":"Tehoru","3686":"Teluk Elpaputih","3687":"Telutih","3688":"Teon Nila Serua"}},"260":{"type":"Kabupaten","city_name":"Maluku Tenggara","postal_code":"97651","districts":{"3689":"Hoat Sorbay","3690":"Kei Besar","3691":"Kei Besar Selatan","3692":"Kei Besar Selatan Barat","3693":"Kei Besar Utara Barat","3694":"Kei Besar Utara Timur","3695":"Kei Kecil","3696":"Kei Kecil Barat","3697":"Kei Kecil Timur","3698":"Kei Kecil Timur Selatan","3699":"Manyeuw"}},"261":{"type":"Kabupaten","city_name":"Maluku Tenggara Barat","postal_code":"97465","districts":{"3700":"Kormomolin","3701":"Molu Maru","3702":"Nirunmas","3703":"Selaru","3704":"Tanimbar Selatan","3705":"Tanimbar Utara","3706":"Wermakatian (Wer Maktian)","3707":"Wertamrian","3708":"Wuarlabobar","3709":"Yaru"}},"400":{"type":"Kabupaten","city_name":"Seram Bagian Barat","postal_code":"97561","districts":{"5514":"Amalatu","5515":"Elpaputih","5516":"Huamual","5517":"Huamual Belakang (Waisala)","5518":"Inamosol","5519":"Kairatu","5520":"Kairatu Barat","5521":"Kepulauan Manipa","5522":"Seram Barat","5523":"Taniwel","5524":"Taniwel Timur"}},"401":{"type":"Kabupaten","city_name":"Seram Bagian Timur","postal_code":"97581","districts":{"5525":"Bula","5526":"Bula Barat","5527":"Gorom Timur","5528":"Kian Darat","5529":"Kilmury","5530":"Pulau Gorong (Gorom)","5531":"Pulau Panjang","5532":"Seram Timur","5533":"Siritaun Wida Timur","5534":"Siwalalat","5535":"Teluk Waru","5536":"Teor","5537":"Tutuk Tolu","5538":"Wakate","5539":"Werinama"}},"488":{"type":"Kota","city_name":"Tual","postal_code":"97612","districts":{"6773":"Kur Selatan","6774":"Pulau Dullah Selatan","6775":"Pulau Dullah Utara","6776":"Pulau Tayando Tam","6777":"Pulau-Pulau Kur"}}}