{"68":{"type":"Kabupaten","city_name":"Bima","postal_code":"84171","districts":{"911":"Ambalawi","912":"Belo","913":"Bolo","914":"Donggo","915":"Lambitu","916":"Lambu","917":"Langgudu","918":"Madapangga","919":"Monta","920":"Palibelo","921":"Parado","922":"Sanggar","923":"Sape","924":"Soromandi","925":"Tambora","926":"Wawo","927":"Wera","928":"Woha"}},"69":{"type":"Kota","city_name":"Bima","postal_code":"84139","districts":{"929":"Asakota","930":"Mpunda","931":"Raba","932":"Rasanae Barat","933":"Rasanae Timur"}},"118":{"type":"Kabupaten","city_name":"Dompu","postal_code":"84217","districts":{"1609":"Dompu","1610":"Hu'u","1611":"Kempo","1612":"Kilo","1613":"Menggelewa (Manggelewa)","1614":"Pajo","1615":"Pekat","1616":"Woja"}},"238":{"type":"Kabupaten","city_name":"Lombok Barat","postal_code":"83311","districts":{"3372":"Batu Layar","3373":"Gerung","3374":"Gunungsari","3375":"Kediri","3376":"Kuripan","3377":"Labuapi","3378":"Lembar","3379":"Lingsar","3380":"Narmada","3381":"Sekotong"}},"239":{"type":"Kabupaten","city_name":"Lombok Tengah","postal_code":"83511","districts":{"3382":"Batukliang","3383":"Batukliang Utara","3384":"Janapria","3385":"Jonggat","3386":"Kopang","3387":"Praya","3388":"Praya Barat","3389":"Praya Barat Daya","3390":"Praya Tengah","3391":"Praya Timur","3392":"Pringgarata","3393":"Pujut"}},"240":{"type":"Kabupaten","city_name":"Lombok Timur","postal_code":"83612","districts":{"3394":"Aikmel","3395":"Jerowaru","3396":"Keruak","3397":"Labuhan Haji","3398":"Masbagik","3399":"Montong Gading","3400":"Pringgabaya","3401":"Pringgasela","3402":"Sakra","3403":"Sakra Barat","3404":"Sakra Timur","3405":"Sambalia (Sambelia)","3406":"Selong","3407":"Sembalun","3408":"Sikur","3409":"Suela (Suwela)","3410":"Sukamulia","3411":"Suralaga","3412":"Terara","3413":"Wanasaba"}},"241":{"type":"Kabupaten","city_name":"Lombok Utara","postal_code":"83711","districts":{"3414":"Bayan","3415":"Gangga","3416":"Kayangan","3417":"Pemenang","3418":"Tanjung"}},"276":{"type":"Kota","city_name":"Mataram","postal_code":"83131","districts":{"3876":"Ampenan","3877":"Cakranegara","3878":"Mataram","3879":"Sandubaya (Sandujaya)","3880":"Sekarbela","3881":"Selaparang (Selaprang)"}},"438":{"type":"Kabupaten","city_name":"Sumbawa","postal_code":"84315","districts":{"6033":"Alas","6034":"Alas Barat","6035":"Batulanteh","6036":"Buer","6037":"Empang","6038":"Labangka","6039":"Labuhan Badas","6040":"Lantung","6041":"Lape (Lape Lopok)","6042":"Lenangguar","6043":"Lopok","6044":"Lunyuk","6045":"Maronge","6046":"Moyo Hilir","6047":"Moyo Hulu","6048":"Moyo Utara","6049":"Orong Telu","6050":"Plampang","6051":"Rhee","6052":"Ropang","6053":"Sumbawa","6054":"Tarano","6055":"Unter Iwes (Unterwiris)","6056":"Utan"}},"439":{"type":"Kabupaten","city_name":"Sumbawa Barat","postal_code":"84419","districts":{"6057":"Brang Ene","6058":"Brang Rea","6059":"Jereweh","6060":"Maluk","6061":"Poto Tano","6062":"Sateluk (Seteluk)","6063":"Sekongkang","6064":"Taliwang"}}}