{"73":{"type":"Kota","city_name":"Bitung","postal_code":"95512","districts":{"966":"Aertembaga (Bitung Timur)","967":"Girian","968":"Lembeh Selatan (Bitung Selatan)","969":"Lembeh Utara","970":"Madidir (Bitung Tengah)","971":"Maesa","972":"Matuari (Bitung Barat)","973":"Ranowulu (Bitung Utara)"}},"81":{"type":"Kabupaten","city_name":"Bolaang Mongondow (Bolmong)","postal_code":"95755","districts":{"1096":"Bilalang","1097":"Bolaang","1098":"Bolaang Timur","1099":"Dumoga","1100":"Dumoga Barat","1101":"Dumoga Tengah","1102":"Dumoga Tenggara","1103":"Dumoga Timur","1104":"Dumoga Utara","1105":"Lolak","1106":"Lolayan","1107":"Passi Barat","1108":"Passi Timur","1109":"Poigar","1110":"Sangtombolang"}},"82":{"type":"Kabupaten","city_name":"Bolaang Mongondow Selatan","postal_code":"95774","districts":{"1111":"Bolaang Uki","1112":"Pinolosian","1113":"Pinolosian Tengah","1114":"Pinolosian Timur","1115":"Posigadan"}},"83":{"type":"Kabupaten","city_name":"Bolaang Mongondow Timur","postal_code":"95783","districts":{"1116":"Kotabunan","1117":"Modayag","1118":"Modayag Barat","1119":"Nuangan","1120":"Tutuyan"}},"84":{"type":"Kabupaten","city_name":"Bolaang Mongondow Utara","postal_code":"95765","districts":{"1121":"Bintauna","1122":"Bolang Itang Barat","1123":"Bolang Itang Timur","1124":"Kaidipang","1125":"Pinogaluman","1126":"Sangkub"}},"188":{"type":"Kabupaten","city_name":"Kepulauan Sangihe","postal_code":"95819","districts":{"2607":"Kendahe","2608":"Kepulauan Marore","2609":"Manganitu","2610":"Manganitu Selatan","2611":"Nusa Tabukan","2612":"Tabukan Selatan","2613":"Tabukan Selatan Tengah","2614":"Tabukan Selatan Tenggara","2615":"Tabukan Tengah","2616":"Tabukan Utara","2617":"Tahuna","2618":"Tahuna Barat","2619":"Tahuna Timur","2620":"Tamako","2621":"Tatoareng"}},"190":{"type":"Kabupaten","city_name":"Kepulauan Siau Tagulandang Biaro (Sitaro)","postal_code":"95862","districts":{"2624":"Biaro","2625":"Siau Barat","2626":"Siau Barat Selatan","2627":"Siau Barat Utara","2628":"Siau Tengah","2629":"Siau Timur","2630":"Siau Timur Selatan","2631":"Tagulandang","2632":"Tagulandang Selatan","2633":"Tagulandang Utara"}},"192":{"type":"Kabupaten","city_name":"Kepulauan Talaud","postal_code":"95885","districts":{"2653":"Beo","2654":"Beo Selatan","2655":"Beo Utara","2656":"Damao (Damau)","2657":"Essang","2658":"Essang Selatan","2659":"Gemeh","2660":"Kabaruan","2661":"Kalongan","2662":"Lirung","2663":"Melonguane","2664":"Melonguane Timur","2665":"Miangas","2666":"Moronge","2667":"Nanusa","2668":"Pulutan","2669":"Rainis","2670":"Salibabu","2671":"Tampan Amma"}},"204":{"type":"Kota","city_name":"Kotamobagu","postal_code":"95711","districts":{"2870":"Kotamobagu Barat","2871":"Kotamobagu Selatan","2872":"Kotamobagu Timur","2873":"Kotamobagu Utara"}},"267":{"type":"Kota","city_name":"Manado","postal_code":"95247","districts":{"3768":"Bunaken","3769":"Bunaken Kepulauan","3770":"Malalayang","3771":"Mapanget","3772":"Paal Dua","3773":"Sario","3774":"Singkil","3775":"Tikala","3776":"Tuminiting","3777":"Wanea","3778":"Wenang"}},"285":{"type":"Kabupaten","city_name":"Minahasa","postal_code":"95614","districts":{"4006":"Eris","4007":"Kakas","4008":"Kakas Barat","4009":"Kawangkoan","4010":"Kawangkoan Barat","4011":"Kawangkoan Utara","4012":"Kombi","4013":"Langowan Barat","4014":"Langowan Selatan","4015":"Langowan Timur","4016":"Langowan Utara","4017":"Lembean Timur","4018":"Mandolang","4019":"Pineleng","4020":"Remboken","4021":"Sonder","4022":"Tombariri","4023":"Tombariri Timur","4024":"Tombulu","4025":"Tompaso","4026":"Tompaso Barat","4027":"Tondano Barat","4028":"Tondano Selatan","4029":"Tondano Timur","4030":"Tondano Utara"}},"286":{"type":"Kabupaten","city_name":"Minahasa Selatan","postal_code":"95914","districts":{"4031":"Amurang","4032":"Amurang Barat","4033":"Amurang Timur","4034":"Kumelembuai","4035":"Maesaan","4036":"Modoinding","4037":"Motoling","4038":"Motoling Barat","4039":"Motoling Timur","4040":"Ranoyapo","4041":"Sinonsayang","4042":"Suluun Tareran","4043":"Tareran","4044":"Tatapaan","4045":"Tenga","4046":"Tompaso Baru","4047":"Tumpaan"}},"287":{"type":"Kabupaten","city_name":"Minahasa Tenggara","postal_code":"95995","districts":{"4048":"Belang","4049":"Pasan","4050":"Pusomaen","4051":"Ratahan","4052":"Ratahan Timur","4053":"Ratatotok","4054":"Silian Raya","4055":"Tombatu","4056":"Tombatu Timur","4057":"Tombatu Utara","4058":"Touluaan","4059":"Touluaan Selatan"}},"288":{"type":"Kabupaten","city_name":"Minahasa Utara","postal_code":"95316","districts":{"4060":"Airmadidi","4061":"Dimembe","4062":"Kalawat","4063":"Kauditan","4064":"Kema","4065":"Likupang Barat","4066":"Likupang Selatan","4067":"Likupang Timur","4068":"Talawaan","4069":"Wori"}},"485":{"type":"Kota","city_name":"Tomohon","postal_code":"95416","districts":{"6733":"Tomohon Barat","6734":"Tomohon Selatan","6735":"Tomohon Tengah","6736":"Tomohon Timur","6737":"Tomohon Utara"}}}