{"12":{"type":"Kabupaten","city_name":"Agam","postal_code":"26411","districts":{"176":"Ampek Nagari (IV Nagari )","177":"Banuhampu","178":"Baso","179":"Candung","180":"IV Angkat Candung (Ampek Angkek)","181":"IV Koto (Ampek Koto)","182":"Kamang Magek","183":"Lubuk Basung","184":"Malakak","185":"Matur","186":"Palembayan","187":"Palupuh","188":"Sungai Pua (Puar)","189":"Tanjung Mutiara","190":"Tanjung Raya","191":"Tilatang Kamang"}},"93":{"type":"Kota","city_name":"Bukittinggi","postal_code":"26115","districts":{"1276":"Aur Birugo Tigo Baleh","1277":"Guguk Panjang (Guguak Panjang)","1278":"Mandiangin Koto Selayan"}},"116":{"type":"Kabupaten","city_name":"Dharmasraya","postal_code":"27612","districts":{"1588":"Asam Jujuhan","1589":"Koto Baru","1590":"Koto Besar","1591":"Koto Salak","1592":"Padang Laweh","1593":"Pulau Punjung","1594":"Sembilan Koto (IX Koto)","1595":"Sitiung","1596":"Sungai Rumbai","1597":"Timpeh","1598":"Tiumang"}},"186":{"type":"Kabupaten","city_name":"Kepulauan Mentawai","postal_code":"25771","districts":{"2588":"Pagai Selatan","2589":"Pagai Utara","2590":"Siberut Barat","2591":"Siberut Barat Daya","2592":"Siberut Selatan","2593":"Siberut Tengah","2594":"Siberut Utara","2595":"Sikakap","2596":"Sipora Selatan","2597":"Sipora Utara"}},"236":{"type":"Kabupaten","city_name":"Lima Puluh Koto\/Kota","postal_code":"26671","districts":{"3351":"Akabiluru","3352":"Bukik Barisan","3353":"Guguak (Gugu)","3354":"Gunuang Omeh (Gunung Mas)","3355":"Harau","3356":"Kapur IX\/Sembilan","3357":"Lareh Sago Halaban","3358":"Luak (Luhak)","3359":"Mungka","3360":"Pangkalan Koto Baru","3361":"Payakumbuh","3362":"Situjuah Limo\/Lima Nagari","3363":"Suliki"}},"318":{"type":"Kota","city_name":"Padang","postal_code":"25112","districts":{"4534":"Bungus Teluk Kabung","4535":"Koto Tangah","4536":"Kuranji","4537":"Lubuk Begalung","4538":"Lubuk Kilangan","4539":"Nanggalo","4540":"Padang Barat","4541":"Padang Selatan","4542":"Padang Timur","4543":"Padang Utara","4544":"Pauh"}},"321":{"type":"Kota","city_name":"Padang Panjang","postal_code":"27122","districts":{"4566":"Padang Panjang Barat","4567":"Padang Panjang Timur"}},"322":{"type":"Kabupaten","city_name":"Padang Pariaman","postal_code":"25583","districts":{"4568":"2 X 11 Enam Lingkung","4569":"2 X 11 Kayu Tanam","4570":"Batang Anai","4571":"Batang Gasan","4572":"Enam Lingkung","4573":"IV Koto Aur Malintang","4574":"Lubuk Alung","4575":"Nan Sabaris","4576":"Padang Sago","4577":"Patamuan","4578":"Sintuk\/Sintuak Toboh Gadang","4579":"Sungai Geringging\/Garingging","4580":"Sungai Limau","4581":"Ulakan Tapakih\/Tapakis","4582":"V Koto Kampung Dalam","4583":"V Koto Timur","4584":"VII Koto Sungai Sarik"}},"337":{"type":"Kota","city_name":"Pariaman","postal_code":"25511","districts":{"4734":"Pariaman Selatan","4735":"Pariaman Tengah","4736":"Pariaman Timur","4737":"Pariaman Utara"}},"339":{"type":"Kabupaten","city_name":"Pasaman","postal_code":"26318","districts":{"4760":"Bonjol","4761":"Duo Koto (II Koto)","4762":"Lubuk Sikaping","4763":"Mapat Tunggul","4764":"Mapat Tunggul Selatan","4765":"Padang Gelugur","4766":"Panti","4767":"Rao","4768":"Rao Selatan","4769":"Rao Utara","4770":"Simpang Alahan Mati","4771":"Tigo Nagari (III Nagari)"}},"340":{"type":"Kabupaten","city_name":"Pasaman Barat","postal_code":"26511","districts":{"4772":"Gunung Tuleh","4773":"Kinali","4774":"Koto Balingka","4775":"Lembah Melintang","4776":"Luhak Nan Duo","4777":"Pasaman","4778":"Ranah Batahan","4779":"Sasak Ranah Pasisir\/Pesisie","4780":"Sei Beremas","4781":"Sungai Aur","4782":"Talamau"}},"345":{"type":"Kota","city_name":"Payakumbuh","postal_code":"26213","districts":{"4842":"Lamposi Tigo Nagari","4843":"Payakumbuh Barat","4844":"Payakumbuh Selatan","4845":"Payakumbuh Timur","4846":"Payakumbuh Utara"}},"357":{"type":"Kabupaten","city_name":"Pesisir Selatan","postal_code":"25611","districts":{"4984":"Airpura","4985":"Basa Ampek Balai Tapan","4986":"Batang Kapas","4987":"Bayang","4988":"IV Jurai","4989":"IV Nagari Bayang Utara","4990":"Koto XI Tarusan","4991":"Lengayang","4992":"Linggo Sari Baganti","4993":"Lunang","4994":"Pancung Soal","4995":"Ranah Ampek Hulu Tapan","4996":"Ranah Pesisir","4997":"Silaut","4998":"Sutera"}},"394":{"type":"Kota","city_name":"Sawah Lunto","postal_code":"27416","districts":{"5443":"Barangin","5444":"Lembah Segar","5445":"Silungkang","5446":"Talawi"}},"411":{"type":"Kabupaten","city_name":"Sijunjung (Sawah Lunto Sijunjung)","postal_code":"27511","districts":{"5664":"IV Nagari","5665":"Kamang Baru","5666":"Koto VII","5667":"Kupitan","5668":"Lubuak Tarok","5669":"Sijunjung","5670":"Sumpur Kudus","5671":"Tanjung Gadang"}},"420":{"type":"Kabupaten","city_name":"Solok","postal_code":"27365","districts":{"5796":"Bukit Sundi","5797":"Danau Kembar","5798":"Gunung Talang","5799":"Hiliran Gumanti","5800":"IX Koto Sei Lasi","5801":"Junjung Sirih","5802":"Kubung","5803":"Lembah Gumanti","5804":"Lembang Jaya","5805":"Pantai Cermin","5806":"Payung Sekaki","5807":"Tigo Lurah","5808":"X Koto Diatas","5809":"X Koto Singkarak"}},"421":{"type":"Kota","city_name":"Solok","postal_code":"27315","districts":{"5810":"Lubuk Sikarah","5811":"Tanjung Harapan"}},"422":{"type":"Kabupaten","city_name":"Solok Selatan","postal_code":"27779","districts":{"5812":"Koto Parik Gadang Diateh","5813":"Pauh Duo","5814":"Sangir","5815":"Sangir Balai Janggo","5816":"Sangir Batang Hari","5817":"Sangir Jujuan","5818":"Sungai Pagu"}},"453":{"type":"Kabupaten","city_name":"Tanah Datar","postal_code":"27211","districts":{"6243":"Batipuh","6244":"Batipuh Selatan","6245":"Lima Kaum","6246":"Lintau Buo","6247":"Lintau Buo Utara","6248":"Padang Ganting","6249":"Pariangan","6250":"Rambatan","6251":"Salimpaung","6252":"Sepuluh Koto (X Koto)","6253":"Sungai Tarab","6254":"Sungayang","6255":"Tanjung Baru","6256":"Tanjung Emas"}}}